EYESAT-1 (AO-27)        
1 22825U 93061C   17333.88031366  .00000011  00000-0  21953-4 0  9996
2 22825  98.8359 301.6868 0007906 201.5796 158.5053 14.30014928260813
CUTE-1 (CO-55)          
1 27844U 03031E   17333.91450159  .00000076  00000-0  54156-4 0  9991
2 27844  98.6890 340.5066 0009042 223.6907 136.3556 14.22078564747832
CUBESAT XI-IV (CO-57)   
1 27848U 03031J   17333.95943826  .00000069  00000-0  51388-4 0  9993
2 27848  98.6981 340.8774 0008811 234.3661 125.6697 14.21687734747724
CUBESAT XI 5            
1 28895U 05043F   17333.91062258  .00000187  00000-0  44872-4 0  9999
2 28895  97.8828 128.7714 0016359 343.9205  16.1477 14.63478960644497
CUTE-1.7+APD II (CO-65) 
1 32785U 08021C   17333.87531614  .00000374  00000-0  46356-4 0  9990
2 32785  97.5564 350.4974 0012643 345.9199  14.1664 14.88016364519469
COMPASS-1               
1 32787U 08021E   17333.79089289  .00000456  00000-0  49211-4 0  9993
2 32787  97.5450   0.2809 0011310 309.8375  50.1849 14.92831818520154
AAUSAT-II               
1 32788U 08021F   17333.80013703  .00000440  00000-0  46173-4 0  9991
2 32788  97.5427   3.4140 0010584 300.2707  59.7465 14.94129870520304
DELFI-C3 (DO-64)        
1 32789U 08021G   17333.82502096  .00002167  00000-0  15460-3 0  9994
2 32789  97.5406  28.4474 0011168 255.2934 104.7056 15.05537635521683
CANX-2                  
1 32790U 08021H   17333.81884511  .00000331  00000-0  41941-4 0  9995
2 32790  97.5555 348.7157 0013373 347.7645  12.3245 14.87729811519388
SEEDS II (CO-66)        
1 32791U 08021J   17333.61475577  .00000621  00000-0  69163-4 0  9990
2 32791  97.5505 355.1057 0012545 328.5003  31.5464 14.90403330519701
SWISSCUBE               
1 35932U 09051B   17333.88684895  .00000191  00000-0  54218-4 0  9995
2 35932  98.5183 115.5989 0008796 101.8291 258.3893 14.56092594434394
BEESAT                  
1 35933U 09051C   17333.92873923  .00000148  00000-0  44278-4 0  9990
2 35933  98.5221 117.0600 0006957 112.4953 247.6981 14.56203197434465
ITUPSAT 1               
1 35935U 09051E   17333.94022052  .00000135  00000-0  42101-4 0  9992
2 35935  98.5334 117.3264 0009273 108.0648 252.1560 14.55388773434318
TISAT 1                 
1 36799U 10035E   17333.89544583  .00000617  00000-0  69029-4 0  9990
2 36799  98.0816 100.2056 0013318 138.9545 221.2677 14.90619409400265
M-CUBED & EXP-1 PRIME   
1 37855U 11061F   17333.84838980  .00002836  00000-0  15327-3 0  9992
2 37855 101.7139 289.4451 0178428 311.9648  46.6476 15.03829703331218
HORYU 2                 
1 38340U 12025D   17333.49838823  .00000332  00000-0  56954-4 0  9991
2 38340  98.3763 343.2625 0012665 123.3340 236.9082 14.75455362287253
STRAND-1                
1 39090U 13009E   17333.55472127  .00000065  00000-0  38202-4 0  9994
2 39090  98.5367 177.3178 0009405 163.4897 196.6597 14.34998690249192
BRITE-AUSTRIA           
1 39091U 13009F   17333.56232891  .00000029  00000-0  25381-4 0  9992
2 39091  98.5333 176.6609 0010593 171.6018 188.5346 14.35051422249201
UNIBRITE                
1 39092U 13009G   17333.78534099  .00000040  00000-0  29536-4 0  9991
2 39092  98.5344 176.5575 0009610 163.7823 196.3672 14.34925925249216
AIST-2                  
1 39133U 13015D   17333.89934952  .00000255  00000-0  30615-4 0  9996
2 39133  64.8725 121.8051 0036496 254.1588 105.5507 15.04435963252835
SOMP                    
1 39134U 13015E   17333.69692639  .00002614  00000-0  13418-3 0  9990
2 39134  64.8659  51.9339 0030867 239.4100 120.3981 15.18552669254220
BEESAT-3                
1 39135U 13015F   17333.72862810  .00002104  00000-0  11725-3 0  9998
2 39135  64.8705  62.6576 0033132 258.4184 101.3222 15.16184333254017
BEESAT-2                
1 39136U 13015G   17333.76161633  .00001985  00000-0  11284-3 0  9994
2 39136  64.8704  64.8099 0032130 259.9618  99.7881 15.15671692254363
NEE-01 PEGASUS          
1 39151U 13018B   17333.90522214  .00000210  00000-0  34964-4 0  9997
2 39151  97.9816  64.3686 0016127 230.8652 129.1127 14.79817205248031
CUBEBUG-1 (CAPITAN BETO)
1 39153U 13018D   17333.91043739  .00000271  00000-0  42536-4 0  9991
2 39153  97.9844  65.3221 0016072 228.6574 131.3256 14.80295528248024
ESTCUBE 1               
1 39161U 13021C   17333.79473485  .00000270  00000-0  50876-4 0  9990
2 39161  98.0213  57.5875 0009331 343.3272  16.7619 14.71987897245116
POPACS 1                
1 39268U 13055D   17333.91827449  .00004011  00000-0  11228-3 0  9996
2 39268  81.0030 195.0350 0645111  92.9879 274.5271 14.32668624214431
POPACS 2                
1 39269U 13055E   17333.94712631  .00003326  00000-0  96114-4 0  9992
2 39269  81.0168 212.9572 0696534 139.6088 225.9030 14.21138082213615
POPACS 3                
1 39270U 13055F   17333.39672565  .00002488  00000-0  77682-4 0  9991
2 39270  81.0192 223.4167 0722234 170.8847 190.6314 14.14022704214112
ZACUBE-1 (TSHEPISOSAT)  
1 39417U 13066B   17333.64966056  .00000353  00000-0  50778-4 0  9991
2 39417  97.6108   7.7023 0060712  88.7464 272.0703 14.80830115217269
WNISAT-1                
1 39423U 13066H   17333.83513662  .00000150  00000-0  39950-4 0  9994
2 39423  97.7006 308.6473 0174230 280.5207  77.6401 14.52903640213289
TRITON-1                
1 39427U 13066M   17333.94570361  .00000245  00000-0  47107-4 0  9997
2 39427  97.6364 338.1841 0114257 177.0359 183.1549 14.67570627215163
GOMX 1                  
1 39430U 13066Q   17333.94214822  .00000206  00000-0  46860-4 0  9990
2 39430  97.6769 320.4464 0150493 239.3638 119.2652 14.58981746213919
BRITE-PL                
1 39431U 13066R   17333.88505034  .00000130  00000-0  38495-4 0  9993
2 39431  97.7296 297.1312 0201824 323.2486  35.5010 14.46893693212217
HUMSAT-D                
1 39433U 13066T   17333.68999357  .00000564  00000-0  61149-4 0  9991
2 39433  97.6331  31.7563 0031646  29.3649 330.9340 14.91667012217505
EAGLE 2                 
1 39436U 13066W   17333.85160006  .00062141  00000-0  10854-2 0  9998
2 39436  97.7128  89.2356 0007140 206.6705 153.4179 15.50442920222189
CUBEBUG-2 (LO-74)       
1 39440U 13066AA  17333.78121465  .00000331  00000-0  52934-4 0  9991
2 39440  97.6148 355.7480 0081916 122.5388 238.3770 14.75567743215314
NEE-02 KRYSAOR          
1 39441U 13066AB  17333.88362682  .00000227  00000-0  39269-4 0  9991
2 39441  97.6137 354.3119 0083288 126.3610 234.5322 14.74702575215247
FUNCUBE-1 (AO-73)       
1 39444U 13066AE  17333.74889610  .00000436  00000-0  60225-4 0  9992
2 39444  97.6123   9.0647 0059831  84.6750 276.1286 14.81587671215532
UWE-3                   
1 39446U 13066AG  17333.87464458  .00000334  00000-0  51043-4 0  9992
2 39446  97.6115   1.5411 0071807 105.4073 255.5086 14.78101241215673
BRITE-TORONTO           
1 40020U 14033L   17333.64145638  .00000131  00000-0  30802-4 0  9993
2 40020  97.8100 196.7655 0088000 159.6204 200.8549 14.66446252184343
DUCHIFAT-1              
1 40021U 14033M   17333.70364995  .00000731  00000-0  81398-4 0  9992
2 40021  97.9155 247.0701 0014229 112.9873 247.2847 14.90116882187241
FLOCK 1C-10             
1 40023U 14033P   17333.72870612  .00001309  00000-0  14488-3 0  9991
2 40023  97.9174 245.9546 0013467 118.4217 241.8390 14.89024741187135
NANOSATC-BR1            
1 40024U 14033Q   17333.71498434  .00000596  00000-0  68604-4 0  9996
2 40024  97.9103 245.6966 0013492 114.4401 245.8225 14.89408665187187
QB50P1                  
1 40025U 14033R   17333.71725974  .00000452  00000-0  54543-4 0  9997
2 40025  97.9075 244.4840 0013693 117.8043 242.4563 14.88580362186604
FLOCK 1C-7              
1 40026U 14033S   17333.73088269  .00001387  00000-0  15046-3 0  9991
2 40026  97.9171 246.9037 0011848 114.1595 246.0882 14.89764161187190
FLOCK 1C-1              
1 40027U 14033T   17333.75698950  .00000377  00000-0  45978-4 0  9994
2 40027  97.9181 246.2589 0013539 115.8854 244.3742 14.89081816187153
POPSAT-HIP-1            
1 40028U 14033U   17333.69640941  .00000409  00000-0  50059-4 0  9997
2 40028  97.9098 244.7869 0015124 116.1320 244.1452 14.88441850187095
FLOCK 1C-2              
1 40029U 14033V   17333.71668886  .00001312  00000-0  14489-3 0  9999
2 40029  97.9200 246.0644 0014938 113.1649 247.1178 14.89112344187148
FLOCK 1C-4              
1 40031U 14033X   17333.88439289  .00000423  00000-0  51023-4 0  9991
2 40031  97.9176 246.1819 0015308 111.2824 248.9994 14.88946699187146
QB50P2                  
1 40032U 14033Y   17333.94863582  .00000343  00000-0  43242-4 0  9991
2 40032  97.9041 243.6556 0013192 112.5850 247.6763 14.88131250186575
FLOCK 1C-11             
1 40033U 14033Z   17333.71189802  .00000518  00000-0  59104-4 0  9991
2 40033  97.9194 247.8224 0013179 103.9979 256.2695 14.90362370187241
ANTELSAT                
1 40034U 14033AA  17333.74478265  .00000344  00000-0  58594-4 0  9998
2 40034  97.8357 212.3326 0060068 119.5260 241.1957 14.73815748184779
FLOCK 1C-9              
1 40035U 14033AB  17333.69933344  .00000570  00000-0  66243-4 0  9998
2 40035  97.9206 246.4849 0012908 106.8586 253.4066 14.89154109187147
FLOCK 1C-6              
1 40036U 14033AC  17333.70858424  .00000869  00000-0  97640-4 0  9992
2 40036  97.9209 246.7489 0012855 106.7472 253.5182 14.89261366187153
PERSEUS-M2              
1 40037U 14033AD  17333.94662502  .00000131  00000-0  21075-4 0  9990
2 40037  97.9048 241.7779 0015634 119.7007 240.5767 14.86297581186438
FLOCK 1C-5              
1 40038U 14033AE  17333.71804746  .00000965  00000-0  10782-3 0  9991
2 40038  97.9177 246.5286 0015080 106.7234 253.5659 14.89232784187152
PERSEUS-M1              
1 40039U 14033AF  17333.78630549  .00000178  00000-0  26674-4 0  9991
2 40039  97.9052 241.0959 0015526 116.8058 243.4747 14.85920236186352
FLOCK 1C-8              
1 40040U 14033AG  17333.76061758  .00000278  00000-0  33734-4 0  9997
2 40040  97.9244 249.2500 0013853  93.0847 267.1944 14.91189638187311
